NORAD_CAT_ID,OBJECT_NAME,OBJECT_TYPE,EPOCH,MEAN_MOTION,ECCENTRICITY,INCLINATION,RA_OF_ASC_NODE,ARG_OF_PERICENTER,MEAN_ANOMALY,BSTAR,MEAN_MOTION_DOT,MEAN_MOTION_DDOT,TLE_LINE0,TLE_LINE1,TLE_LINE2,SEMIMAJOR_AXIS,PERIOD,APOGEE,PERIGEE,DECAYED
51871.0,STARLINK-3567,PAYLOAD,2024-06-29 22:13:03,15.08840431,0.0001024,53.2136,262.3718,71.843,288.2673,4.1585e-05,3.74e-06,0.0,0 STARLINK-3567,1 51871U 22022V   24181.92572967  .00000374  00000-0  41585-4 0  9994,2 51871  53.2136 262.3718 0001024  71.8430 288.2673 15.08840431129960,6917.879,95.438,540.452,539.036,0.0
51871.0,STARLINK-3567,PAYLOAD,2024-06-30 04:34:35,15.08835456,0.0001577,53.2163,261.1897,111.7106,248.4054,-0.00015811,-2.803e-05,0.0,0 STARLINK-3567,1 51871U 22022V   24182.19069366 -.00002803  00000-0 -15811-3 0  9991,2 51871  53.2163 261.1897 0001577 111.7106 248.4054 15.08835456129931,6917.894,95.438,540.85,538.668,0.0
51871.0,STARLINK-3567,PAYLOAD,2024-06-30 10:56:09,15.08823822,0.0001586,53.2161,259.9965,100.4105,259.7065,-0.00023817,-4.075e-05,0.0,0 STARLINK-3567,1 51871U 22022V   24182.45566315 -.00004075  00000-0 -23817-3 0  9994,2 51871  53.2161 259.9965 0001586 100.4105 259.7065 15.08823822129979,6917.93,95.439,540.892,538.698,0.0
51871.0,STARLINK-3567,PAYLOAD,2024-06-30 12:31:32,15.0882791,0.0001424,53.2156,259.698,100.3109,259.8044,-0.00017694,-3.102e-05,0.0,0 STARLINK-3567,1 51871U 22022V   24182.52190106 -.00003102  00000-0 -17694-3 0  9999,2 51871  53.2156 259.6980 0001424 100.3109 259.8044 15.08827910130052,6917.917,95.438,540.767,538.797,0.0
51871.0,STARLINK-3567,PAYLOAD,2024-06-30 22:03:50,15.08835297,0.0001417,53.216,257.9133,90.4854,269.6301,-1.7844e-05,-5.72e-06,0.0,0 STARLINK-3567,1 51871U 22022V   24182.91934003 -.00000572  00000-0 -17844-4 0  9990,2 51871  53.2160 257.9133 0001417  90.4854 269.6301 15.08835297130115,6917.895,95.438,540.74,538.779,0.0
51871.0,STARLINK-3567,PAYLOAD,2024-07-01 04:25:23,15.0883541,0.0001437,53.2168,256.7238,87.2619,272.8537,0.0001189,1.605e-05,0.0,0 STARLINK-3567,1 51871U 22022V   24183.18430180  .00001605  00000-0  11890-3 0  9997,2 51871  53.2168 256.7238 0001437  87.2619 272.8537 15.08835410130081,6917.894,95.438,540.754,538.765,0.0
51871.0,STARLINK-3567,PAYLOAD,2024-07-01 13:57:42,15.08847899,0.0001373,53.2158,254.9382,84.1921,275.9228,0.00041461,6.318e-05,0.0,0 STARLINK-3567,1 51871U 22022V   24183.58173971  .00006318  00000-0  41461-3 0  9996,2 51871  53.2158 254.9382 0001373  84.1921 275.9228 15.08847899130211,6917.856,95.437,540.671,538.771,0.0
51871.0,STARLINK-3567,PAYLOAD,2024-07-01 21:54:38,15.08839877,0.000128,53.2132,253.4499,86.4359,273.6779,0.00031137,4.671e-05,0.0,0 STARLINK-3567,1 51871U 22022V   24183.91294349  .00004671  00000-0  31137-3 0  9995,2 51871  53.2132 253.4499 0001280  86.4359 273.6779 15.08839877130261,6917.881,95.438,540.631,538.86,0.0
51871.0,STARLINK-3567,PAYLOAD,2024-07-02 04:16:10,15.088397,0.0001499,53.2134,252.262,89.933,270.1834,0.00025565,3.783e-05,0.0,0 STARLINK-3567,1 51871U 22022V   24184.17790474  .00003783  00000-0  25565-3 0  9995,2 51871  53.2134 252.2620 0001499  89.9330 270.1834 15.08839700130231,6917.881,95.438,540.783,538.709,0.0
51871.0,STARLINK-3567,PAYLOAD,2024-07-02 13:48:29,15.08847104,0.0001327,53.215,250.4777,88.6148,271.4996,0.00030601,4.587e-05,0.0,0 STARLINK-3567,1 51871U 22022V   24184.57534197  .00004587  00000-0  30601-3 0  9997,2 51871  53.2150 250.4777 0001327  88.6148 271.4996 15.08847104130369,6917.859,95.437,540.642,538.806,0.0
51871.0,STARLINK-3567,PAYLOAD,2024-07-03 10:28:30,15.08846232,0.0001336,53.2147,246.6106,96.7303,263.3841,0.00037455,5.679e-05,0.0,0 STARLINK-3567,1 51871U 22022V   24185.43646255  .00005679  00000-0  37455-3 0  9999,2 51871  53.2147 246.6106 0001336  96.7303 263.3841 15.08846232130428,6917.861,95.437,540.651,538.802,0.0
51871.0,STARLINK-3567,PAYLOAD,2024-07-03 21:36:12,15.08845105,0.0001361,53.2139,244.5307,81.7876,278.327,0.00028164,4.198e-05,0.0,0 STARLINK-3567,1 51871U 22022V   24185.90014321  .00004198  00000-0  28164-3 0  9996,2 51871  53.2139 244.5307 0001361  81.7876 278.3270 15.08845105130561,6917.865,95.437,540.671,538.788,0.0
51871.0,STARLINK-3567,PAYLOAD,2024-07-04 03:57:45,15.08842504,0.0001685,53.2148,243.3422,83.5504,276.568,0.00018683,2.687e-05,0.0,0 STARLINK-3567,1 51871U 22022V   24186.16510521  .00002687  00000-0  18683-3 0  9994,2 51871  53.2148 243.3422 0001685  83.5504 276.5680 15.08842504130535,6917.873,95.437,540.903,538.572,0.0
51871.0,STARLINK-3567,PAYLOAD,2024-07-04 10:19:17,15.088424,0.0001478,53.2157,242.1519,92.5276,267.5886,0.00012259,1.664e-05,0.0,0 STARLINK-3567,1 51871U 22022V   24186.43006427  .00001664  00000-0  12259-3 0  9996,2 51871  53.2157 242.1519 0001478  92.5276 267.5886 15.08842400130640,6917.873,95.437,540.761,538.716,0.0
51871.0,STARLINK-3567,PAYLOAD,2024-07-05 10:10:04,15.08845245,0.0001495,53.2162,237.6919,91.7002,268.4161,0.00012322,1.674e-05,0.0,0 STARLINK-3567,1 51871U 22022V   24187.42366185  .00001674  00000-0  12322-3 0  9998,2 51871  53.2162 237.6919 0001495  91.7002 268.4161 15.08845245130721,6917.864,95.437,540.764,538.695,0.0
51871.0,STARLINK-3567,PAYLOAD,2024-07-06 03:39:19,15.08839903,0.0001524,53.2159,234.4201,93.7123,266.4043,6.6269e-05,7.67e-06,0.0,0 STARLINK-3567,1 51871U 22022V   24188.15230388  .00000767  00000-0  66269-4 0  9996,2 51871  53.2159 234.4201 0001524  93.7123 266.4043 15.08839903130838,6917.881,95.438,540.8,538.691,0.0
51871.0,STARLINK-3567,PAYLOAD,2024-07-06 13:11:37,15.08841594,0.0001321,53.2154,232.6364,89.7116,270.4027,6.4006e-05,7.31e-06,0.0,0 STARLINK-3567,1 51871U 22022V   24188.54974237  .00000731  00000-0  64006-4 0  9995,2 51871  53.2154 232.6364 0001321  89.7116 270.4027 15.08841594130965,6917.876,95.437,540.654,538.827,0.0
51871.0,STARLINK-3567,PAYLOAD,2024-07-06 19:33:10,15.0883673,0.0001351,53.2166,231.4449,85.7814,274.3332,3.9598e-05,3.42e-06,0.0,0 STARLINK-3567,1 51871U 22022V   24188.81470721  .00000342  00000-0  39598-4 0  9990,2 51871  53.2166 231.4449 0001351  85.7814 274.3332 15.08836730131007,6917.89,95.438,540.69,538.821,0.0
51871.0,STARLINK-3567,PAYLOAD,2024-07-07 01:54:43,15.08837132,0.0001394,53.216,230.2564,84.4269,275.6882,1.0096e-06,-2.72e-06,0.0,0 STARLINK-3567,1 51871U 22022V   24189.07966905 -.00000272  00000-0  10096-5 0  9999,2 51871  53.2160 230.2564 0001394  84.4269 275.6882 15.08837132130979,6917.889,95.438,540.719,538.79,0.0
51871.0,STARLINK-3567,PAYLOAD,2024-07-07 09:51:39,15.08838004,0.000132,53.2163,228.7708,89.5079,270.6064,8.1063e-06,-1.59e-06,0.0,0 STARLINK-3567,1 51871U 22022V   24189.41086829 -.00000159  00000-0  81063-5 0  9991,2 51871  53.2163 228.7708 0001320  89.5079 270.6064 15.08838004131098,6917.886,95.438,540.665,538.838,0.0
51871.0,STARLINK-3567,PAYLOAD,2024-07-08 11:17:48,15.08843124,0.0001263,53.2159,224.0126,79.8568,280.2566,0.0001485,2.076e-05,0.0,0 STARLINK-3567,1 51871U 22022V   24190.47070429  .00002076  00000-0  14850-3 0  9995,2 51871  53.2159 224.0126 0001263  79.8568 280.2566 15.08843124131180,6917.871,95.437,540.61,538.862,0.0
51871.0,STARLINK-3567,PAYLOAD,2024-07-08 19:14:44,15.08855789,0.0001383,53.2162,222.5256,83.4385,276.6765,-0.00015093,-2.69e-05,0.0,0 STARLINK-3567,1 51871U 22022V   24190.80190039 -.00002690  00000-0 -15093-3 0  9996,2 51871  53.2162 222.5256 0001383  83.4385 276.6765 15.08855789131306,6917.832,95.437,540.654,538.74,0.0
51871.0,STARLINK-3567,PAYLOAD,2024-07-09 11:08:36,15.08839974,0.0001364,53.2163,219.5518,85.5851,274.5297,9.2581e-05,1.186e-05,0.0,0 STARLINK-3567,1 51871U 22022V   24191.46430857  .00001186  00000-0  92581-4 0  9999,2 51871  53.2163 219.5518 0001364  85.5851 274.5297 15.08839974131332,6917.88,95.438,540.689,538.802,0.0
51871.0,STARLINK-3567,PAYLOAD,2024-07-10 09:24:00,15.08838976,0.0001325,53.2156,215.3886,88.5149,271.5995,6.7627e-06,-1.8e-06,0.0,0 STARLINK-3567,1 51871U 22022V   24192.39167180 -.00000180  00000-0  67627-5 0  9996,2 51871  53.2156 215.3886 0001325  88.5149 271.5995 15.08838976131542,6917.884,95.438,540.665,538.832,0.0
51871.0,STARLINK-3567,PAYLOAD,2024-07-11 07:39:24,15.08842144,0.0001314,53.2154,211.2248,90.0968,270.0175,8.2829e-05,1.031e-05,0.0,0 STARLINK-3567,1 51871U 22022V   24193.31902778  .00001031  00000-0  82829-4 0  9994,2 51871  53.2154 211.2248 0001314  90.0968 270.0175 15.08842144131683,6917.874,95.437,540.648,538.83,0.0
51871.0,STARLINK-3567,PAYLOAD,2024-07-11 18:47:06,15.08840051,0.0001306,53.2157,209.1434,89.8975,270.2167,8.6983e-05,1.097e-05,0.0,0 STARLINK-3567,1 51871U 22022V   24193.78270901  .00001097  00000-0  86983-4 0  9998,2 51871  53.2157 209.1434 0001306  89.8975 270.2167 15.08840051131682,6917.88,95.438,540.649,538.842,0.0
51871.0,STARLINK-3567,PAYLOAD,2024-07-12 07:30:11,15.08836943,0.0001354,53.2159,206.7646,92.3411,267.7736,6.3094e-05,7.16e-06,0.0,0 STARLINK-3567,1 51871U 22022V   24194.31263307  .00000716  00000-0  63094-4 0  9995,2 51871  53.2159 206.7646 0001354  92.3411 267.7736 15.08836943131834,6917.89,95.438,540.691,538.818,0.0
51871.0,STARLINK-3567,PAYLOAD,2024-07-13 07:20:58,15.08838649,0.0001385,53.216,202.3045,92.5629,267.5522,2.6191e-05,1.29e-06,0.0,0 STARLINK-3567,1 51871U 22022V   24195.30623427  .00000129  00000-0  26191-4 0  9993,2 51871  53.2160 202.3045 0001385  92.5629 267.5522 15.08838649131980,6917.885,95.438,540.708,538.791,0.0
51871.0,STARLINK-3567,PAYLOAD,2024-07-14 04:00:59,15.08841899,0.0001329,53.2157,198.4383,91.1254,268.9891,0.00010039,1.31e-05,0.0,0 STARLINK-3567,1 51871U 22022V   24196.16735117  .00001310  00000-0  10039-3 0  9994,2 51871  53.2157 198.4383 0001329  91.1254 268.9891 15.08841899132046,6917.875,95.437,540.659,538.82,0.0
51871.0,STARLINK-3567,PAYLOAD,2024-07-14 07:11:45,15.08843461,0.0001333,53.2158,197.8436,91.3506,268.7639,0.0001111,1.481e-05,0.0,0 STARLINK-3567,1 51871U 22022V   24196.29982999  .00001481  00000-0  11110-3 0  9990,2 51871  53.2158 197.8436 0001333  91.3506 268.7639 15.08843461132131,6917.87,95.437,540.657,538.813,0.0
